{
  "type": "FeatureCollection",
  "features": [
    {
      "type": "Feature",
      "properties": {
        "norad_id": 55973,
        "name": "TIANMU-1 03",
        "group": "weather",
        "lat": 8.579658143287082,
        "lon": 145.13253573249216,
        "alt_km": 444.2159526813175,
        "timestamp": "2025-12-09T16:56:36.222807+00:00",
        "meta_object_name": "TIANMU-1 03",
        "meta_object_id": "2023-039A",
        "meta_epoch": "2025-12-09T12:13:47.859744",
        "meta_mean_motion": 15.40775627,
        "meta_eccentricity": 0.0004497,
        "meta_inclination": 97.5112,
        "meta_ra_of_asc_node": 146.0714,
        "meta_arg_of_pericenter": 70.1163,
        "meta_mean_anomaly": 290.0567,
        "meta_ephemeris_type": 0,
        "meta_classification_type": "U",
        "meta_norad_cat_id": 55973,
        "meta_element_set_no": 999,
        "meta_rev_at_epoch": 15156,
        "meta_bstar": 0.0005115,
        "meta_mean_motion_dot": 0.00020885,
        "meta_mean_motion_ddot": 0,
        "tle_line1": "1 55973U 23039A   25343.50958171  .00020885  00000+0  51150-3 0  9996",
        "tle_line2": "2 55973  97.5112 146.0714 0004497  70.1163 290.0567 15.40775627151562"
      },
      "geometry": {
        "type": "Point",
        "coordinates": [
          145.13253573249216,
          8.579658143287082
        ]
      }
    },
    {
      "type": "Feature",
      "properties": {
        "norad_id": 55974,
        "name": "TIANMU-1 04",
        "group": "weather",
        "lat": 59.90294198547213,
        "lon": -21.388455049117546,
        "alt_km": 434.97685966229346,
        "timestamp": "2025-12-09T16:56:36.222818+00:00",
        "meta_object_name": "TIANMU-1 04",
        "meta_object_id": "2023-039B",
        "meta_epoch": "2025-12-09T11:45:12.686688",
        "meta_mean_motion": 15.41109371,
        "meta_eccentricity": 0.0005177,
        "meta_inclination": 97.5044,
        "meta_ra_of_asc_node": 145.2433,
        "meta_arg_of_pericenter": 65.6466,
        "meta_mean_anomaly": 294.5321,
        "meta_ephemeris_type": 0,
        "meta_classification_type": "U",
        "meta_norad_cat_id": 55974,
        "meta_element_set_no": 999,
        "meta_rev_at_epoch": 15156,
        "meta_bstar": 0.00050493,
        "meta_mean_motion_dot": 0.00020847,
        "meta_mean_motion_ddot": 0,
        "tle_line1": "1 55974U 23039B   25343.48973017  .00020847  00000+0  50493-3 0  9997",
        "tle_line2": "2 55974  97.5044 145.2433 0005177  65.6466 294.5321 15.41109371151562"
      },
      "geometry": {
        "type": "Point",
        "coordinates": [
          -21.388455049117546,
          59.90294198547213
        ]
      }
    },
    {
      "type": "Feature",
      "properties": {
        "norad_id": 55975,
        "name": "TIANMU-1 05",
        "group": "weather",
        "lat": 24.474467163810125,
        "lon": -30.599987331360566,
        "alt_km": 442.3198291965773,
        "timestamp": "2025-12-09T16:56:36.222828+00:00",
        "meta_object_name": "TIANMU-1 05",
        "meta_object_id": "2023-039C",
        "meta_epoch": "2025-12-09T11:35:46.658688",
        "meta_mean_motion": 15.40732746,
        "meta_eccentricity": 0.0004373,
        "meta_inclination": 97.5091,
        "meta_ra_of_asc_node": 145.7289,
        "meta_arg_of_pericenter": 86.8084,
        "meta_mean_anomaly": 273.3662,
        "meta_ephemeris_type": 0,
        "meta_classification_type": "U",
        "meta_norad_cat_id": 55975,
        "meta_element_set_no": 999,
        "meta_rev_at_epoch": 15154,
        "meta_bstar": 0.00051025,
        "meta_mean_motion_dot": 0.00020804,
        "meta_mean_motion_ddot": 0,
        "tle_line1": "1 55975U 23039C   25343.48317892  .00020804  00000+0  51025-3 0  9996",
        "tle_line2": "2 55975  97.5091 145.7289 0004373  86.8084 273.3662 15.40732746151545"
      },
      "geometry": {
        "type": "Point",
        "coordinates": [
          -30.599987331360566,
          24.474467163810125
        ]
      }
    },
    {
      "type": "Feature",
      "properties": {
        "norad_id": 55976,
        "name": "TIANMU-1 06",
        "group": "weather",
        "lat": 71.86371955402328,
        "lon": -9.828410296185968,
        "alt_km": 432.83968248433393,
        "timestamp": "2025-12-09T16:56:36.222838+00:00",
        "meta_object_name": "TIANMU-1 06",
        "meta_object_id": "2023-039D",
        "meta_epoch": "2025-12-09T11:48:30.090816",
        "meta_mean_motion": 15.41161801,
        "meta_eccentricity": 0.0004699,
        "meta_inclination": 97.5102,
        "meta_ra_of_asc_node": 146.2003,
        "meta_arg_of_pericenter": 82.4111,
        "meta_mean_anomaly": 277.7669,
        "meta_ephemeris_type": 0,
        "meta_classification_type": "U",
        "meta_norad_cat_id": 55976,
        "meta_element_set_no": 999,
        "meta_rev_at_epoch": 15156,
        "meta_bstar": 0.00050282,
        "meta_mean_motion_dot": 0.00020794,
        "meta_mean_motion_ddot": 0,
        "tle_line1": "1 55976U 23039D   25343.49201494  .00020794  00000+0  50282-3 0  9990",
        "tle_line2": "2 55976  97.5102 146.2003 0004699  82.4111 277.7669 15.41161801151569"
      },
      "geometry": {
        "type": "Point",
        "coordinates": [
          -9.828410296185968,
          71.86371955402328
        ]
      }
    },
    {
      "type": "Feature",
      "properties": {
        "norad_id": 56232,
        "name": "FENGYUN 3G",
        "group": "weather",
        "lat": 20.75123695426625,
        "lon": -98.3374576792834,
        "alt_km": 406.1822521150525,
        "timestamp": "2025-12-09T16:56:36.222868+00:00",
        "meta_object_name": "FENGYUN 3G",
        "meta_object_id": "2023-055A",
        "meta_epoch": "2025-12-09T10:38:58.874208",
        "meta_mean_motion": 15.53340632,
        "meta_eccentricity": 0.000927,
        "meta_inclination": 49.9935,
        "meta_ra_of_asc_node": 244.4601,
        "meta_arg_of_pericenter": 132.8049,
        "meta_mean_anomaly": 227.3699,
        "meta_ephemeris_type": 0,
        "meta_classification_type": "U",
        "meta_norad_cat_id": 56232,
        "meta_element_set_no": 999,
        "meta_rev_at_epoch": 15051,
        "meta_bstar": 0.00062055,
        "meta_mean_motion_dot": 0.00039768,
        "meta_mean_motion_ddot": 0,
        "tle_line1": "1 56232U 23055A   25343.44373697  .00039768  00000+0  62055-3 0  9996",
        "tle_line2": "2 56232  49.9935 244.4601 0009270 132.8049 227.3699 15.53340632150517"
      },
      "geometry": {
        "type": "Point",
        "coordinates": [
          -98.3374576792834,
          20.75123695426625
        ]
      }
    },
    {
      "type": "Feature",
      "properties": {
        "norad_id": 57166,
        "name": "METEOR-M2 3",
        "group": "weather",
        "lat": -3.592552769396388,
        "lon": -143.2486198411046,
        "alt_km": 818.0101801580231,
        "timestamp": "2025-12-09T16:56:36.222881+00:00",
        "meta_object_name": "METEOR-M2 3",
        "meta_object_id": "2023-091A",
        "meta_epoch": "2025-12-09T12:42:42.484032",
        "meta_mean_motion": 14.24025583,
        "meta_eccentricity": 0.0004093,
        "meta_inclination": 98.6382,
        "meta_ra_of_asc_node": 37.125,
        "meta_arg_of_pericenter": 17.6485,
        "meta_mean_anomaly": 342.4835,
        "meta_ephemeris_type": 0,
        "meta_classification_type": "U",
        "meta_norad_cat_id": 57166,
        "meta_element_set_no": 999,
        "meta_rev_at_epoch": 12752,
        "meta_bstar": 4.2402e-05,
        "meta_mean_motion_dot": 5.4e-07,
        "meta_mean_motion_ddot": 0,
        "tle_line1": "1 57166U 23091A   25343.52965838  .00000054  00000+0  42402-4 0  9997",
        "tle_line2": "2 57166  98.6382  37.1250 0004093  17.6485 342.4835 14.24025583127528"
      },
      "geometry": {
        "type": "Point",
        "coordinates": [
          -143.2486198411046,
          -3.592552769396388
        ]
      }
    },
    {
      "type": "Feature",
      "properties": {
        "norad_id": 57399,
        "name": "TIANMU-1 07",
        "group": "weather",
        "lat": -43.17480036046757,
        "lon": 40.51871231360026,
        "alt_km": 491.1281488135792,
        "timestamp": "2025-12-09T16:56:36.222892+00:00",
        "meta_object_name": "TIANMU-1 07",
        "meta_object_id": "2023-101A",
        "meta_epoch": "2025-12-09T12:25:08.111136",
        "meta_mean_motion": 15.27997946,
        "meta_eccentricity": 0.0005641,
        "meta_inclination": 97.2877,
        "meta_ra_of_asc_node": 33.4382,
        "meta_arg_of_pericenter": 89.7174,
        "meta_mean_anomaly": 270.4712,
        "meta_ephemeris_type": 0,
        "meta_classification_type": "U",
        "meta_norad_cat_id": 57399,
        "meta_element_set_no": 999,
        "meta_rev_at_epoch": 13266,
        "meta_bstar": 0.00038028,
        "meta_mean_motion_dot": 0.00010323,
        "meta_mean_motion_ddot": 0,
        "tle_line1": "1 57399U 23101A   25343.51745499  .00010323  00000+0  38028-3 0  9993",
        "tle_line2": "2 57399  97.2877  33.4382 0005641  89.7174 270.4712 15.27997946132660"
      },
      "geometry": {
        "type": "Point",
        "coordinates": [
          40.51871231360026,
          -43.17480036046757
        ]
      }
    }
  ]
}